COSMOS 2433 (720)       
1 32275U 07052A   26035.58490529 -.00000070  00000+0  00000+0 0  9997
2 32275  65.6518 320.3972 0003348 267.2581  92.7339  2.13103848142232
COSMOS 2432 (719)       
1 32276U 07052B   26036.84392288 -.00000074  00000+0  00000+0 0  9995
2 32276  65.6669 320.4800 0011053 324.3536 225.8234  2.13103130142280
COSMOS 2434 (721)       
1 32393U 07065A   26036.89718825  .00000058  00000+0  00000+0 0  9994
2 32393  64.3184 196.3409 0004530  72.2637 104.8860  2.13101176140979
COSMOS 2436 (723)       
1 32395U 07065C   26036.22983208  .00000051  00000+0  00000+0 0  9995
2 32395  64.3269 196.4343 0017730   9.6896 148.3374  2.13100104140917
COSMOS 2456 (730)       
1 36111U 09070A   26037.33622094 -.00000022  00000+0  00000+0 0  9998
2 36111  64.9320  75.4364 0005526 300.8509  10.5051  2.13103404125637
COSMOS 2457 (733)       
1 36112U 09070B   26036.70643490 -.00000018  00000+0  00000+0 0  9997
2 36112  64.9170  75.3044 0002903 184.4842 132.3468  2.13100864125628
COSMOS 2460 (732)       
1 36402U 10007C   26036.49110900 -.00000072  00000+0  00000+0 0  9992
2 36402  65.4968 318.9243 0001768 330.9712 181.0118  2.13106022123926
COSMOS 2476 (744)       
1 37867U 11064A   26037.15767038 -.00000019  00000+0  00000+0 0  9997
2 37867  65.1927  77.2959 0025193 239.4033 203.3214  2.13103660110971
COSMOS 2477 (745)       
1 37868U 11064B   26034.48475288  .00000002  00000+0  00000+0 0  9995
2 37868  65.1975  77.4646 0022134 240.1686 132.7279  2.13102685110911
COSMOS 2475 (743)       
1 37869U 11064C   26037.32571284 -.00000020  00000+0  00000+0 0  9996
2 37869  65.2062  77.3888 0027873 252.6803  95.3889  2.13101479110978
COSMOS 2485 (747)       
1 39155U 13019A   26036.98683868 -.00000018  00000+0  00000+0 0  9998
2 39155  65.3436  78.0086 0025558 234.9705 124.8578  2.13102977 99483
COSMOS 2492 (754)       
1 39620U 14012A   26036.94556433 -.00000073  00000+0  00000+0 0  9993
2 39620  65.3740 318.3983 0013752 322.5185  37.4205  2.13103233 92444
COSMOS 2500 (755)       
1 40001U 14032A   26036.64777383 -.00000072  00000+0  00000+0 0  9995
2 40001  65.3099 318.1656 0005913 212.5298 147.4688  2.13105861 90651
COSMOS 2501 (702K)      
1 40315U 14075A   26036.43876111  .00000052  00000+0  00000+0 0  9993
2 40315  63.6171 194.9297 0020392 204.4436 155.4298  2.13101284 87044
COSMOS 2514 (751)       
1 41330U 16008A   26036.89234687 -.00000073  00000+0  00000+0 0  9999
2 41330  65.0993 317.5148 0009816 215.3198 144.6512  2.13102640 77823
COSMOS 2522 (752)       
1 42939U 17055A   26036.73035677  .00000056  00000+0  00000+0 0  9999
2 42939  64.0793 196.3554 0006540 223.6166 136.3035  2.13101728 65177
COSMOS 2527 (756)       
1 43508U 18053A   26036.22229197 -.00000011  00000+0  00000+0 0  9999
2 43508  65.5015  78.3098 0009528 239.7452 120.2318  2.13102072 59464
COSMOS 2529 (757)       
1 43687U 18086A   26035.38080304  .00000042  00000+0  00000+0 0  9997
2 43687  64.2953 197.0753 0007101 252.2767 107.6154  2.13101893 56453
COSMOS 2534 (758)       
1 44299U 19030A   26036.30924295  .00000052  00000+0  00000+0 0  9997
2 44299  64.3687 197.0537 0008816 282.6324 203.9806  2.13102263 52113
COSMOS 2544 (759)       
1 44850U 19088A   26037.10542451 -.00000018  00000+0  00000+0 0  9995
2 44850  65.4896  78.1062 0015455 256.5850 103.3110  2.13101835 47921
COSMOS 2545 (760)       
1 45358U 20018A   26036.36250059 -.00000071  00000+0  00000+0 0  9990
2 45358  64.4351 317.0539 0009521 252.4236 107.5088  2.13102322 45856
COSMOS 2547 (705K)      
1 46805U 20075A   26037.02011891  .00000060  00000+0  00000+0 0  9991
2 46805  64.5994 196.8497 0006265 227.6159 132.3042  2.13100102 41119
COSMOS 2557 (706K)      
1 52984U 22075A   26037.18528868 -.00000076  00000+0  00000+0 0  9990
2 52984  64.3759 319.1017 0012453 282.2823  77.6122  2.13101604 27921
COSMOS 2559 (707K)      
1 54031U 22130A   26037.00459634 -.00000076  00000+0  00000+0 0  9992
2 54031  64.3483 319.1962 0010719 186.1123 173.9083  2.13101221 25892
COSMOS 2564 (761)       
1 54377U 22161A   26036.84830354  .00000058  00000+0  00000+0 0  9991
2 54377  64.7420 197.0679 0008846 205.1299 154.8000  2.13102013 24832
COSMOS 2569 (703K)      
1 57517U 23114A   26036.86147399 -.00000017  00000+0  00000+0 0  9997
2 57517  65.2247  77.0497 0012459 289.6577  70.2762  2.13104032 19462
COSMOS 2584 (704K)      
1 63130U 25042A   26032.99421580  .00000010  00000+0  00000+0 0  9996
2 63130  65.0043  77.3991 0007923 230.5803 129.4286  2.13103094  7160
COSMOS 2596 (708K)      
1 65590U 25206B   26037.15468079 -.00000076  00000+0  00000+0 0  9990
2 65590  64.7106 319.5486 0013449 312.9025 116.7443  2.13100257  3123
